NORAD_CAT_ID,OBJECT_NAME,OBJECT_TYPE,EPOCH,MEAN_MOTION,ECCENTRICITY,INCLINATION,RA_OF_ASC_NODE,ARG_OF_PERICENTER,MEAN_ANOMALY,BSTAR,MEAN_MOTION_DOT,MEAN_MOTION_DDOT,TLE_LINE0,TLE_LINE1,TLE_LINE2,SEMIMAJOR_AXIS,PERIOD,APOGEE,PERIGEE,DECAYED
49179.0,STARLINK-3043,PAYLOAD,2024-07-28 16:33:59,14.98337575,0.0003254,69.9996,299.5235,271.701,88.3776,0.00020878,2.399e-05,0.0,0 STARLINK-3043,1 49179U 21082BB  24210.69026818  .00002399  00000-0  20878-3 0  9993,2 49179  69.9996 299.5235 0003254 271.7010  88.3776 14.98337575158732,6950.169,96.107,574.296,569.773,0.0
49179.0,STARLINK-3043,PAYLOAD,2024-07-29 11:47:36,14.98327402,0.0002794,70.0007,297.5049,260.5705,99.5138,7.382e-05,7.88e-06,0.0,0 STARLINK-3043,1 49179U 21082BB  24211.49139954  .00000788  00000-0  73820-4 0  9994,2 49179  70.0007 297.5049 0002794 260.5705  99.5138 14.98327402158851,6950.201,96.107,574.008,570.124,0.0
49179.0,STARLINK-3043,PAYLOAD,2024-07-30 11:49:37,14.98331893,0.0002931,70.0004,294.98,266.8986,93.1838,-1.4862e-05,-2.7e-06,0.0,0 STARLINK-3043,1 49179U 21082BB  24212.49280016 -.00000270  00000-0 -14862-4 0  9990,2 49179  70.0004 294.9800 0002931 266.8986  93.1838 14.98331893159001,6950.187,96.107,574.089,570.015,0.0
49179.0,STARLINK-3043,PAYLOAD,2024-07-30 15:01:53,14.98332609,0.0002867,70.0005,294.6434,265.8158,94.2673,6.7119e-06,-1.3e-07,0.0,0 STARLINK-3043,1 49179U 21082BB  24212.62631919 -.00000013  00000-0  67119-5 0  9995,2 49179  70.0005 294.6434 0002867 265.8158  94.2673 14.98332609159027,6950.185,96.107,574.042,570.057,0.0
49179.0,STARLINK-3043,PAYLOAD,2024-07-31 13:27:46,14.98335496,0.0002995,69.9997,292.2851,265.0888,94.993,0.00014768,1.67e-05,0.0,0 STARLINK-3043,1 49179U 21082BB  24213.56095270  .00001670  00000-0  14768-3 0  9992,2 49179  69.9997 292.2851 0002995 265.0888  94.9930 14.98335496159160,6950.176,96.107,574.122,569.959,0.0
49179.0,STARLINK-3043,PAYLOAD,2024-07-31 15:03:54,14.9833349,0.0002905,69.9996,292.1164,263.0521,97.0308,0.00016982,1.934e-05,0.0,0 STARLINK-3043,1 49179U 21082BB  24213.62771387  .00001934  00000-0  16982-3 0  9992,2 49179  69.9996 292.1164 0002905 263.0521  97.0308 14.98333490159174,6950.182,96.107,574.066,570.028,0.0
49179.0,STARLINK-3043,PAYLOAD,2024-08-01 05:29:07,14.98329827,0.0003044,69.9994,290.6011,267.2061,92.875,0.00015768,1.789e-05,0.0,0 STARLINK-3043,1 49179U 21082BB  24214.22855625  .00001789  00000-0  15768-3 0  9996,2 49179  69.9994 290.6011 0003044 267.2061  92.8750 14.98329827159269,6950.193,96.107,574.174,569.943,0.0
49179.0,STARLINK-3043,PAYLOAD,2024-08-01 11:53:39,14.98336976,0.0003069,69.9995,289.9287,269.5315,90.5492,0.00013512,1.52e-05,0.0,0 STARLINK-3043,1 49179U 21082BB  24214.49559273  .00001520  00000-0  13512-3 0  9993,2 49179  69.9995 289.9287 0003069 269.5315  90.5492 14.98336976159306,6950.171,96.107,574.169,569.903,0.0
49179.0,STARLINK-3043,PAYLOAD,2024-08-01 15:05:55,14.98339289,0.0003055,69.9995,289.5919,269.4807,90.6002,0.00015877,1.802e-05,0.0,0 STARLINK-3043,1 49179U 21082BB  24214.62911040  .00001802  00000-0  15877-3 0  9991,2 49179  69.9995 289.5919 0003055 269.4807  90.6002 14.98339289159324,6950.164,96.106,574.152,569.906,0.0
49179.0,STARLINK-3043,PAYLOAD,2024-08-02 13:31:47,14.98365908,0.0002485,69.9999,287.2376,266.6574,93.4301,-0.00074219,-8.945e-05,0.0,0 STARLINK-3043,1 49179U 21082BB  24215.56374866 -.00008945  00000-0 -74219-3 0  9996,2 49179  69.9999 287.2376 0002485 266.6574  93.4301 14.98365908159461,6950.082,96.105,573.674,570.22,0.0
49179.0,STARLINK-3043,PAYLOAD,2024-08-02 15:07:55,14.98370081,0.0002561,69.9997,287.069,267.521,92.5656,-0.00082116,-9.887e-05,0.0,0 STARLINK-3043,1 49179U 21082BB  24215.63050622 -.00009887  00000-0 -82116-3 0  9996,2 49179  69.9997 287.0690 0002561 267.5210  92.5656 14.98370081159470,6950.069,96.104,573.714,570.154,0.0
49179.0,STARLINK-3043,PAYLOAD,2024-08-02 21:32:29,14.98329132,0.0003129,69.9994,286.3951,268.9065,91.1736,2.0701e-06,-6.8e-07,0.0,0 STARLINK-3043,1 49179U 21082BB  24215.89755825 -.00000068  00000-0  20701-5 0  9996,2 49179  69.9994 286.3951 0003129 268.9065  91.1736 14.98329132159513,6950.196,96.107,574.235,569.886,0.0
49179.0,STARLINK-3043,PAYLOAD,2024-08-03 05:33:09,14.98330177,0.0003145,69.9993,285.5524,272.5335,87.5464,3.8135e-05,3.62e-06,0.0,0 STARLINK-3043,1 49179U 21082BB  24216.23135735  .00000362  00000-0  38135-4 0  9992,2 49179  69.9993 285.5524 0003145 272.5335  87.5464 14.98330177159561,6950.192,96.107,574.243,569.872,0.0
49179.0,STARLINK-3043,PAYLOAD,2024-08-03 13:33:49,14.98336869,0.0003108,69.9994,284.7116,269.9255,90.1548,8.3071e-05,8.98e-06,0.0,0 STARLINK-3043,1 49179U 21082BB  24216.56515169  .00000898  00000-0  83071-4 0  9994,2 49179  69.9994 284.7116 0003108 269.9255  90.1548 14.98336869159613,6950.172,96.107,574.197,569.877,0.0
49179.0,STARLINK-3043,PAYLOAD,2024-08-03 15:09:57,14.98338204,0.0003103,69.9994,284.5431,270.2117,89.8686,9.8011e-05,1.077e-05,0.0,0 STARLINK-3043,1 49179U 21082BB  24216.63191044  .00001077  00000-0  98011-4 0  9994,2 49179  69.9994 284.5431 0003103 270.2117  89.8686 14.98338204159622,6950.168,96.106,574.189,569.876,0.0
49179.0,STARLINK-3043,PAYLOAD,2024-08-03 21:34:29,14.98336525,0.00031,69.9996,283.8686,272.0767,88.0037,3.9861e-05,3.83e-06,0.0,0 STARLINK-3043,1 49179U 21082BB  24216.89895181  .00000383  00000-0  39861-4 0  9992,2 49179  69.9996 283.8686 0003100 272.0767  88.0037 14.98336525159665,6950.173,96.107,574.192,569.883,0.0
49179.0,STARLINK-3043,PAYLOAD,2024-08-04 05:35:10,14.98327696,0.0003076,69.9995,283.0285,270.9968,89.0839,0.00012388,1.385e-05,0.0,0 STARLINK-3043,1 49179U 21082BB  24217.23275647  .00001385  00000-0  12388-3 0  9997,2 49179  69.9995 283.0285 0003076 270.9968  89.0839 14.98327696159719,6950.2,96.107,574.203,569.927,0.0
49179.0,STARLINK-3043,PAYLOAD,2024-08-04 13:35:50,14.98333471,0.0002995,69.9997,282.1867,272.3922,87.6894,0.00020954,2.408e-05,0.0,0 STARLINK-3043,1 49179U 21082BB  24217.56655196  .00002408  00000-0  20954-3 0  9999,2 49179  69.9997 282.1867 0002995 272.3922  87.6894 14.98333471159760,6950.182,96.107,574.129,569.966,0.0
49179.0,STARLINK-3043,PAYLOAD,2024-08-04 21:36:30,14.98337758,0.0002977,69.9999,281.3446,272.449,87.6328,0.00020426,2.345e-05,0.0,0 STARLINK-3043,1 49179U 21082BB  24217.90034891  .00002345  00000-0  20426-3 0  9994,2 49179  69.9999 281.3446 0002977 272.4490  87.6328 14.98337758159817,6950.169,96.107,574.103,569.965,0.0
49179.0,STARLINK-3043,PAYLOAD,2024-08-05 21:38:31,14.98331791,0.0002958,70.0012,278.819,288.0387,72.045,2.0406e-05,1.51e-06,0.0,0 STARLINK-3043,1 49179U 21082BB  24218.90175306  .00000151  00000-0  20406-4 0  9994,2 49179  70.0012 278.8190 0002958 288.0387  72.0450 14.98331791159961,6950.187,96.107,574.108,569.996,0.0
49179.0,STARLINK-3043,PAYLOAD,2024-08-06 05:39:12,14.98313622,0.0003246,69.9995,277.9728,272.4391,87.6396,0.00013712,1.543e-05,0.0,0 STARLINK-3043,1 49179U 21082BB  24219.23556118  .00001543  00000-0  13712-3 0  9992,2 49179  69.9995 277.9728 0003246 272.4391  87.6396 14.98313622160010,6950.244,96.108,574.365,569.852,0.0
49179.0,STARLINK-3043,PAYLOAD,2024-08-06 13:39:53,14.98319247,0.0003282,69.9989,277.1361,270.7492,89.3291,-0.00010052,-1.292e-05,0.0,0 STARLINK-3043,1 49179U 21082BB  24219.56936503 -.00001292  00000-0 -10052-3 0  9995,2 49179  69.9989 277.1361 0003282 270.7492  89.3291 14.98319247160068,6950.226,96.108,574.372,569.81,0.0
49179.0,STARLINK-3043,PAYLOAD,2024-08-07 12:05:45,14.98335337,0.0003212,69.9988,274.779,271.8742,88.2049,0.00010039,1.105e-05,0.0,0 STARLINK-3043,1 49179U 21082BB  24220.50399509  .00001105  00000-0  10039-3 0  9996,2 49179  69.9988 274.7790 0003212 271.8742  88.2049 14.98335337160202,6950.176,96.107,574.274,569.809,0.0
49179.0,STARLINK-3043,PAYLOAD,2024-08-08 13:43:53,14.98350973,0.0003321,69.9998,272.0867,273.6366,86.4414,0.0007046,8.329e-05,0.0,0 STARLINK-3043,1 49179U 21082BB  24221.57215077  .00008329  00000-0  70460-3 0  9990,2 49179  69.9998 272.0867 0003321 273.6366  86.4414 14.98350973160368,6950.128,96.106,574.301,569.685,0.0
49179.0,STARLINK-3043,PAYLOAD,2024-08-09 05:45:14,14.98341181,0.00028,70.0013,270.4064,252.8996,107.1856,0.00016626,1.892e-05,0.0,0 STARLINK-3043,1 49179U 21082BB  24222.23974895  .00001892  00000-0  16626-3 0  9996,2 49179  70.0013 270.4064 0002800 252.8996 107.1856 14.98341181160462,6950.158,96.106,573.969,570.077,0.0
49179.0,STARLINK-3043,PAYLOAD,2024-08-09 13:45:54,14.98334641,0.0002872,70.0006,269.5618,263.906,96.1772,0.00010682,1.182e-05,0.0,0 STARLINK-3043,1 49179U 21082BB  24222.57355122  .00001182  00000-0  10682-3 0  9997,2 49179  70.0006 269.5618 0002872 263.9060  96.1772 14.98334641160515,6950.179,96.107,574.04,570.047,0.0
49179.0,STARLINK-3043,PAYLOAD,2024-08-09 20:10:26,14.98336836,0.0003173,69.9999,268.8873,268.9898,91.0897,-1.3374e-05,-2.53e-06,0.0,0 STARLINK-3043,1 49179U 21082BB  24222.84058877 -.00000253  00000-0 -13374-4 0  9996,2 49179  69.9999 268.8873 0003173 268.9898  91.0897 14.98336836160551,6950.172,96.107,574.242,569.831,0.0
49179.0,STARLINK-3043,PAYLOAD,2024-08-10 04:11:07,14.98331279,0.0002875,70.0005,268.0462,262.5179,97.5653,2.6731e-05,2.26e-06,0.0,0 STARLINK-3043,1 49179U 21082BB  24223.17439039  .00000226  00000-0  26731-4 0  9995,2 49179  70.0005 268.0462 0002875 262.5179  97.5653 14.98331279160601,6950.189,96.107,574.052,570.056,0.0
49179.0,STARLINK-3043,PAYLOAD,2024-08-10 13:47:55,14.98337385,0.0002995,69.9991,267.0373,262.4001,97.6817,-6.1981e-06,-1.67e-06,0.0,0 STARLINK-3043,1 49179U 21082BB  24223.57495044 -.00000167  00000-0 -61981-5 0  9990,2 49179  69.9991 267.0373 0002995 262.4001  97.6817 14.98337385160661,6950.17,96.107,574.117,569.953,0.0
49179.0,STARLINK-3043,PAYLOAD,2024-08-11 09:01:32,14.98336608,0.0003058,69.9987,265.0168,263.4748,96.6063,9.918e-05,1.091e-05,0.0,0 STARLINK-3043,1 49179U 21082BB  24224.37606793  .00001091  00000-0  99180-4 0  9990,2 49179  69.9987 265.0168 0003058 263.4748  96.6063 14.98336608160788,6950.172,96.107,574.163,569.912,0.0
